[{"OBJECT_NAME":"STARLINK-4482","OBJECT_ID":"2022-101D","EPOCH":"2022-08-29T14:00:01.000224","MEAN_MOTION":15.76608605,"ECCENTRICITY":0.0003232,"INCLINATION":53.2176,"RA_OF_ASC_NODE":106.2967,"ARG_OF_PERICENTER":356.4278,"MEAN_ANOMALY":170.5609,"EPHEMERIS_TYPE":0,"CLASSIFICATION_TYPE":"U","NORAD_CAT_ID":53530,"ELEMENT_SET_NO":999,"REV_AT_EPOCH":130,"BSTAR":-0.0082884,"MEAN_MOTION_DOT":-0.01198878,"MEAN_MOTION_DDOT":0},{"OBJECT_NAME":"STARLINK-4487","OBJECT_ID":"2022-101E","EPOCH":"2022-08-29T14:00:01.000224","MEAN_MOTION":15.7659129,"ECCENTRICITY":0.0003238,"INCLINATION":53.2176,"RA_OF_ASC_NODE":106.2971,"ARG_OF_PERICENTER":355.9049,"MEAN_ANOMALY":170.5682,"EPHEMERIS_TYPE":0,"CLASSIFICATION_TYPE":"U","NORAD_CAT_ID":53531,"ELEMENT_SET_NO":999,"REV_AT_EPOCH":130,"BSTAR":-0.0082936,"MEAN_MOTION_DOT":-0.01198725,"MEAN_MOTION_DDOT":0},{"OBJECT_NAME":"STARLINK-4483","OBJECT_ID":"2022-101F","EPOCH":"2022-08-29T14:00:01.000224","MEAN_MOTION":15.76624844,"ECCENTRICITY":0.0003229,"INCLINATION":53.2176,"RA_OF_ASC_NODE":106.2956,"ARG_OF_PERICENTER":357.3774,"MEAN_ANOMALY":170.1304,"EPHEMERIS_TYPE":0,"CLASSIFICATION_TYPE":"U","NORAD_CAT_ID":53532,"ELEMENT_SET_NO":999,"REV_AT_EPOCH":130,"BSTAR":-0.0082804,"MEAN_MOTION_DOT":-0.01198621,"MEAN_MOTION_DDOT":0},{"OBJECT_NAME":"STARLINK-4493","OBJECT_ID":"2022-101G","EPOCH":"2022-08-29T14:00:01.000224","MEAN_MOTION":15.76641401,"ECCENTRICITY":0.0003429,"INCLINATION":53.2176,"RA_OF_ASC_NODE":106.294,"ARG_OF_PERICENTER":354.6146,"MEAN_ANOMALY":173.4107,"EPHEMERIS_TYPE":0,"CLASSIFICATION_TYPE":"U","NORAD_CAT_ID":53533,"ELEMENT_SET_NO":999,"REV_AT_EPOCH":130,"BSTAR":-0.0082737,"MEAN_MOTION_DOT":-0.01198678,"MEAN_MOTION_DDOT":0},{"OBJECT_NAME":"STARLINK-4488","OBJECT_ID":"2022-101H","EPOCH":"2022-08-29T14:00:01.000224","MEAN_MOTION":15.76708907,"ECCENTRICITY":0.0003307,"INCLINATION":53.2176,"RA_OF_ASC_NODE":106.2901,"ARG_OF_PERICENTER":3.5322,"MEAN_ANOMALY":166.5487,"EPHEMERIS_TYPE":0,"CLASSIFICATION_TYPE":"U","NORAD_CAT_ID":53534,"ELEMENT_SET_NO":999,"REV_AT_EPOCH":130,"BSTAR":-0.0082326,"MEAN_MOTION_DOT":-0.01196515,"MEAN_MOTION_DDOT":0},{"OBJECT_NAME":"STARLINK-4138","OBJECT_ID":"2022-101J","EPOCH":"2022-08-29T14:00:01.000224","MEAN_MOTION":15.76675966,"ECCENTRICITY":0.0003158,"INCLINATION":53.2176,"RA_OF_ASC_NODE":106.292,"ARG_OF_PERICENTER":1.2547,"MEAN_ANOMALY":167.7957,"EPHEMERIS_TYPE":0,"CLASSIFICATION_TYPE":"U","NORAD_CAT_ID":53535,"ELEMENT_SET_NO":999,"REV_AT_EPOCH":130,"BSTAR":-0.0082542,"MEAN_MOTION_DOT":-0.01197637,"MEAN_MOTION_DDOT":0},{"OBJECT_NAME":"STARLINK-4053","OBJECT_ID":"2022-101K","EPOCH":"2022-08-29T14:00:01.000224","MEAN_MOTION":15.76743022,"ECCENTRICITY":0.0003067,"INCLINATION":53.2176,"RA_OF_ASC_NODE":106.2885,"ARG_OF_PERICENTER":1.5407,"MEAN_ANOMALY":169.5698,"EPHEMERIS_TYPE":0,"CLASSIFICATION_TYPE":"U","NORAD_CAT_ID":53536,"ELEMENT_SET_NO":999,"REV_AT_EPOCH":130,"BSTAR":-0.0082292,"MEAN_MOTION_DOT":-0.01197545,"MEAN_MOTION_DDOT":0},{"OBJECT_NAME":"STARLINK-4120","OBJECT_ID":"2022-101L","EPOCH":"2022-08-29T14:00:01.000224","MEAN_MOTION":15.76659833,"ECCENTRICITY":0.0003053,"INCLINATION":53.2176,"RA_OF_ASC_NODE":106.2933,"ARG_OF_PERICENTER":358.339,"MEAN_ANOMALY":170.1952,"EPHEMERIS_TYPE":0,"CLASSIFICATION_TYPE":"U","NORAD_CAT_ID":53537,"ELEMENT_SET_NO":999,"REV_AT_EPOCH":130,"BSTAR":-0.0082684,"MEAN_MOTION_DOT":-0.01198631,"MEAN_MOTION_DDOT":0},{"OBJECT_NAME":"STARLINK-4118","OBJECT_ID":"2022-101M","EPOCH":"2022-08-29T14:00:01.000224","MEAN_MOTION":15.76761668,"ECCENTRICITY":0.0003036,"INCLINATION":53.2176,"RA_OF_ASC_NODE":106.2875,"ARG_OF_PERICENTER":2.6721,"MEAN_ANOMALY":168.9429,"EPHEMERIS_TYPE":0,"CLASSIFICATION_TYPE":"U","NORAD_CAT_ID":53538,"ELEMENT_SET_NO":999,"REV_AT_EPOCH":130,"BSTAR":-0.0082221,"MEAN_MOTION_DOT":-0.01197496,"MEAN_MOTION_DDOT":0},{"OBJECT_NAME":"STARLINK-4123","OBJECT_ID":"2022-101N","EPOCH":"2022-08-29T14:00:01.000224","MEAN_MOTION":15.76691792,"ECCENTRICITY":0.0003008,"INCLINATION":53.2176,"RA_OF_ASC_NODE":106.2911,"ARG_OF_PERICENTER":6.3718,"MEAN_ANOMALY":163.1958,"EPHEMERIS_TYPE":0,"CLASSIFICATION_TYPE":"U","NORAD_CAT_ID":53539,"ELEMENT_SET_NO":999,"REV_AT_EPOCH":130,"BSTAR":-0.0082399,"MEAN_MOTION_DOT":-0.01196452,"MEAN_MOTION_DDOT":0},{"OBJECT_NAME":"STARLINK-4486","OBJECT_ID":"2022-101P","EPOCH":"2022-08-29T14:00:01.000224","MEAN_MOTION":15.76797769,"ECCENTRICITY":0.0003423,"INCLINATION":53.2175,"RA_OF_ASC_NODE":106.2854,"ARG_OF_PERICENTER":355.8292,"MEAN_ANOMALY":176.8014,"EPHEMERIS_TYPE":0,"CLASSIFICATION_TYPE":"U","NORAD_CAT_ID":53540,"ELEMENT_SET_NO":999,"REV_AT_EPOCH":130,"BSTAR":-0.0082128,"MEAN_MOTION_DOT":-0.01198261,"MEAN_MOTION_DDOT":0},{"OBJECT_NAME":"STARLINK-4485","OBJECT_ID":"2022-101Q","EPOCH":"2022-08-29T14:00:01.000224","MEAN_MOTION":15.7672649,"ECCENTRICITY":0.0003255,"INCLINATION":53.2176,"RA_OF_ASC_NODE":106.2891,"ARG_OF_PERICENTER":1.1684,"MEAN_ANOMALY":169.4257,"EPHEMERIS_TYPE":0,"CLASSIFICATION_TYPE":"U","NORAD_CAT_ID":53541,"ELEMENT_SET_NO":999,"REV_AT_EPOCH":130,"BSTAR":-0.0082332,"MEAN_MOTION_DOT":-0.01197395,"MEAN_MOTION_DDOT":0},{"OBJECT_NAME":"STARLINK-4489","OBJECT_ID":"2022-101R","EPOCH":"2022-08-29T14:00:01.000224","MEAN_MOTION":15.76830082,"ECCENTRICITY":0.0003238,"INCLINATION":53.2175,"RA_OF_ASC_NODE":106.2834,"ARG_OF_PERICENTER":1.8367,"MEAN_ANOMALY":171.8231,"EPHEMERIS_TYPE":0,"CLASSIFICATION_TYPE":"U","NORAD_CAT_ID":53542,"ELEMENT_SET_NO":999,"REV_AT_EPOCH":130,"BSTAR":-0.0081946,"MEAN_MOTION_DOT":-0.01197321,"MEAN_MOTION_DDOT":0},{"OBJECT_NAME":"STARLINK-4297","OBJECT_ID":"2022-101S","EPOCH":"2022-08-29T14:00:01.000224","MEAN_MOTION":15.76778904,"ECCENTRICITY":0.0003242,"INCLINATION":53.2175,"RA_OF_ASC_NODE":106.2861,"ARG_OF_PERICENTER":0.9799,"MEAN_ANOMALY":171.1461,"EPHEMERIS_TYPE":0,"CLASSIFICATION_TYPE":"U","NORAD_CAT_ID":53543,"ELEMENT_SET_NO":999,"REV_AT_EPOCH":130,"BSTAR":-0.0082145,"MEAN_MOTION_DOT":-0.01197465,"MEAN_MOTION_DDOT":0},{"OBJECT_NAME":"STARLINK-4303","OBJECT_ID":"2022-101T","EPOCH":"2022-08-29T14:00:01.000224","MEAN_MOTION":15.76863961,"ECCENTRICITY":0.0003167,"INCLINATION":53.2175,"RA_OF_ASC_NODE":106.2814,"ARG_OF_PERICENTER":359.4405,"MEAN_ANOMALY":175.2417,"EPHEMERIS_TYPE":0,"CLASSIFICATION_TYPE":"U","NORAD_CAT_ID":53544,"ELEMENT_SET_NO":999,"REV_AT_EPOCH":130,"BSTAR":-0.0081838,"MEAN_MOTION_DOT":-0.01197488,"MEAN_MOTION_DDOT":0},{"OBJECT_NAME":"STARLINK-4475","OBJECT_ID":"2022-101U","EPOCH":"2022-08-29T14:00:01.000224","MEAN_MOTION":15.76812756,"ECCENTRICITY":0.000323,"INCLINATION":53.2175,"RA_OF_ASC_NODE":106.2841,"ARG_OF_PERICENTER":357.7143,"MEAN_ANOMALY":175.4372,"EPHEMERIS_TYPE":0,"CLASSIFICATION_TYPE":"U","NORAD_CAT_ID":53545,"ELEMENT_SET_NO":999,"REV_AT_EPOCH":130,"BSTAR":-0.0082054,"MEAN_MOTION_DOT":-0.01197891,"MEAN_MOTION_DDOT":0}]
